{
  "type": "FeatureCollection",
  "name": "mumbai_roads",
  "features": [
    {
      "type": "Feature",
      "geometry": {
        "type": "LineString",
        "coordinates": [
          [
            72.8402,
            19.0558
          ],
          [
            72.8441,
            19.0831
          ]
        ]
      },
      "properties": {
        "segment_id": "ROAD_WEH_01",
        "name": "Western Express Highway (Bandra to Santacruz)",
        "corridor": "Western Express Highway",
        "zone": "Western Suburbs",
        "road_type": "Expressway",
        "lanes": 6,
        "speed_limit_kmh": 70,
        "length_km": 5.4,
        "capacity_vph": 4800,
        "elevation_m": 8.5,
        "is_flood_prone": false
      }
    },
    {
      "type": "Feature",
      "geometry": {
        "type": "LineString",
        "coordinates": [
          [
            72.8441,
            19.0831
          ],
          [
            72.8532,
            19.1197
          ]
        ]
      },
      "properties": {
        "segment_id": "ROAD_WEH_02",
        "name": "Western Express Highway (Santacruz to Andheri Flyover)",
        "corridor": "Western Express Highway",
        "zone": "Western Suburbs",
        "road_type": "Expressway",
        "lanes": 6,
        "speed_limit_kmh": 70,
        "length_km": 6.2,
        "capacity_vph": 4800,
        "elevation_m": 11.0,
        "is_flood_prone": false
      }
    },
    {
      "type": "Feature",
      "geometry": {
        "type": "LineString",
        "coordinates": [
          [
            72.8532,
            19.1197
          ],
          [
            72.8569,
            19.1551
          ]
        ]
      },
      "properties": {
        "segment_id": "ROAD_WEH_03",
        "name": "Western Express Highway (Andheri to Goregaon Hub)",
        "corridor": "Western Express Highway",
        "zone": "Western Suburbs",
        "road_type": "Expressway",
        "lanes": 6,
        "speed_limit_kmh": 70,
        "length_km": 5.8,
        "capacity_vph": 4800,
        "elevation_m": 12.5,
        "is_flood_prone": false
      }
    },
    {
      "type": "Feature",
      "geometry": {
        "type": "LineString",
        "coordinates": [
          [
            72.8631,
            19.039
          ],
          [
            72.8785,
            19.062
          ]
        ]
      },
      "properties": {
        "segment_id": "ROAD_EEH_01",
        "name": "Eastern Express Highway (Sion Circle to Kurla Priyadarshini)",
        "corridor": "Eastern Express Highway",
        "zone": "Eastern Suburbs",
        "road_type": "Expressway",
        "lanes": 6,
        "speed_limit_kmh": 70,
        "length_km": 4.5,
        "capacity_vph": 4600,
        "elevation_m": 6.2,
        "is_flood_prone": true
      }
    },
    {
      "type": "Feature",
      "geometry": {
        "type": "LineString",
        "coordinates": [
          [
            72.8785,
            19.062
          ],
          [
            72.905,
            19.088
          ]
        ]
      },
      "properties": {
        "segment_id": "ROAD_EEH_02",
        "name": "Eastern Express Highway (Chembur to Ghatkopar Amar Mahal)",
        "corridor": "Eastern Express Highway",
        "zone": "Eastern Suburbs",
        "road_type": "Expressway",
        "lanes": 6,
        "speed_limit_kmh": 70,
        "length_km": 5.1,
        "capacity_vph": 4600,
        "elevation_m": 8.0,
        "is_flood_prone": false
      }
    },
    {
      "type": "Feature",
      "geometry": {
        "type": "LineString",
        "coordinates": [
          [
            72.818,
            19.0222
          ],
          [
            72.8335,
            19.0435
          ]
        ]
      },
      "properties": {
        "segment_id": "ROAD_BWSL_01",
        "name": "Bandra-Worli Sea Link",
        "corridor": "Sea Link",
        "zone": "South Mumbai",
        "road_type": "Expressway",
        "lanes": 8,
        "speed_limit_kmh": 80,
        "length_km": 5.6,
        "capacity_vph": 5500,
        "elevation_m": 14.0,
        "is_flood_prone": false
      }
    },
    {
      "type": "Feature",
      "geometry": {
        "type": "LineString",
        "coordinates": [
          [
            72.8398,
            19.055
          ],
          [
            72.836,
            19.07
          ]
        ]
      },
      "properties": {
        "segment_id": "ROAD_SVR_01",
        "name": "Swami Vivekanand (SV) Road (Bandra to Khar)",
        "corridor": "SV Road",
        "zone": "Western Suburbs",
        "road_type": "Arterial",
        "lanes": 4,
        "speed_limit_kmh": 45,
        "length_km": 3.2,
        "capacity_vph": 2800,
        "elevation_m": 7.0,
        "is_flood_prone": false
      }
    },
    {
      "type": "Feature",
      "geometry": {
        "type": "LineString",
        "coordinates": [
          [
            72.836,
            19.07
          ],
          [
            72.8415,
            19.085
          ]
        ]
      },
      "properties": {
        "segment_id": "ROAD_SVR_02",
        "name": "Swami Vivekanand (SV) Road (Milan Subway Junction Santacruz)",
        "corridor": "SV Road",
        "zone": "Western Suburbs",
        "road_type": "Subway & Arterial",
        "lanes": 4,
        "speed_limit_kmh": 35,
        "length_km": 2.1,
        "capacity_vph": 2200,
        "elevation_m": 3.8,
        "is_flood_prone": true
      }
    },
    {
      "type": "Feature",
      "geometry": {
        "type": "LineString",
        "coordinates": [
          [
            72.8625,
            19.043
          ],
          [
            72.873,
            19.068
          ]
        ]
      },
      "properties": {
        "segment_id": "ROAD_LBS_01",
        "name": "LBS Marg (Sion to Kurla West)",
        "corridor": "LBS Marg",
        "zone": "Eastern Suburbs",
        "road_type": "Arterial",
        "lanes": 4,
        "speed_limit_kmh": 40,
        "length_km": 4.0,
        "capacity_vph": 2600,
        "elevation_m": 4.5,
        "is_flood_prone": true
      }
    },
    {
      "type": "Feature",
      "geometry": {
        "type": "LineString",
        "coordinates": [
          [
            72.852,
            19.131
          ],
          [
            72.923,
            19.124
          ]
        ]
      },
      "properties": {
        "segment_id": "ROAD_JVLR_01",
        "name": "Jogeshwari-Vikhroli Link Road (JVLR East-West)",
        "corridor": "JVLR",
        "zone": "Western Suburbs",
        "road_type": "Link Road",
        "lanes": 6,
        "speed_limit_kmh": 60,
        "length_km": 10.6,
        "capacity_vph": 4200,
        "elevation_m": 15.0,
        "is_flood_prone": false
      }
    },
    {
      "type": "Feature",
      "geometry": {
        "type": "LineString",
        "coordinates": [
          [
            72.861,
            19.075
          ],
          [
            72.894,
            19.068
          ]
        ]
      },
      "properties": {
        "segment_id": "ROAD_SCLR_01",
        "name": "Santa Cruz-Chembur Link Road (SCLR)",
        "corridor": "SCLR",
        "zone": "BKC",
        "road_type": "Link Road",
        "lanes": 4,
        "speed_limit_kmh": 60,
        "length_km": 6.4,
        "capacity_vph": 3400,
        "elevation_m": 8.0,
        "is_flood_prone": false
      }
    },
    {
      "type": "Feature",
      "geometry": {
        "type": "LineString",
        "coordinates": [
          [
            72.855,
            19.062
          ],
          [
            72.871,
            19.065
          ]
        ]
      },
      "properties": {
        "segment_id": "ROAD_BKC_01",
        "name": "BKC Avenue 1 (Bandra-Kurla Complex Financial Hub)",
        "corridor": "BKC Internal",
        "zone": "BKC",
        "road_type": "Arterial",
        "lanes": 6,
        "speed_limit_kmh": 50,
        "length_km": 3.8,
        "capacity_vph": 3800,
        "elevation_m": 6.8,
        "is_flood_prone": true
      }
    },
    {
      "type": "Feature",
      "geometry": {
        "type": "LineString",
        "coordinates": [
          [
            72.842,
            19.008
          ],
          [
            72.846,
            19.025
          ]
        ]
      },
      "properties": {
        "segment_id": "ROAD_DAD_01",
        "name": "Dr. Babasaheb Ambedkar Road (Hindmata Flyover & Ground Level)",
        "corridor": "Ambedkar Road",
        "zone": "South Mumbai",
        "road_type": "Arterial",
        "lanes": 6,
        "speed_limit_kmh": 50,
        "length_km": 3.9,
        "capacity_vph": 3600,
        "elevation_m": 3.5,
        "is_flood_prone": true
      }
    },
    {
      "type": "Feature",
      "geometry": {
        "type": "LineString",
        "coordinates": [
          [
            72.8235,
            18.932
          ],
          [
            72.819,
            18.955
          ]
        ]
      },
      "properties": {
        "segment_id": "ROAD_MAR_01",
        "name": "Netaji Subhash Chandra Bose Road (Marine Drive)",
        "corridor": "Marine Drive",
        "zone": "South Mumbai",
        "road_type": "Arterial",
        "lanes": 6,
        "speed_limit_kmh": 60,
        "length_km": 3.6,
        "capacity_vph": 4200,
        "elevation_m": 5.0,
        "is_flood_prone": false
      }
    },
    {
      "type": "Feature",
      "geometry": {
        "type": "LineString",
        "coordinates": [
          [
            72.843,
            19.117
          ],
          [
            72.848,
            19.118
          ]
        ]
      },
      "properties": {
        "segment_id": "ROAD_AND_01",
        "name": "Andheri Subway & SV Road Underpass",
        "corridor": "Andheri Subway",
        "zone": "Western Suburbs",
        "road_type": "Subway",
        "lanes": 2,
        "speed_limit_kmh": 30,
        "length_km": 0.8,
        "capacity_vph": 1400,
        "elevation_m": 2.9,
        "is_flood_prone": true
      }
    }
  ]
}